BEESAT-4                
1 41619U 16040W   22305.39699766  .00023267  00000+0  67707-3 0  9998
2 41619  97.2000 352.5795 0007716 357.0752   3.0445 15.35398266341706
RAVAN                   
1 41849U 16067B   22305.82832507  .00007114  00000+0  55081-3 0  9997
2 41849  98.0053  86.9671 0016116 231.9994 127.9775 15.01672130326603
CELTEE 1                
1 41850U 16067C   22305.64875913  .00004325  00000+0  36105-3 0  9994
2 41850  98.0150  81.3165 0008340 231.3830 128.6646 14.99086629326303
OPTICUBE 04             
1 41851U 16067D   22305.36527774  .00002405  00000+0  20783-3 0  9995
2 41851  98.0149  79.8906 0008110 244.3795 115.6589 14.98193780326203
AEROCUBE 8D             
1 41852U 16067E   22305.37762173  .00004798  00000+0  40009-3 0  9991
2 41852  98.0122  80.0345 0009152 237.3076 122.7264 14.99067624326204
AEROCUBE 8C             
1 41853U 16067F   22305.82853974  .00004303  00000+0  35958-3 0  9991
2 41853  98.0124  80.3088 0009571 246.2829 113.7390 14.99049634326261
PROMETHEUS 2-1          
1 41854U 16067G   22305.34179698  .00007747  00000+0  61481-3 0  9998
2 41854  98.0252  81.1977 0015823 252.8340 107.1150 15.00702387326263
PROMETHEUS 2-3          
1 41855U 16067H   22305.33295871  .00007887  00000+0  62628-3 0  9999
2 41855  98.0215  81.2505 0013155 277.3730  82.5998 15.00705476326260
INS-1B                  
1 41954U 17008G   22305.11130622  .00026873  00000+0  77927-3 0  9997
2 41954  97.2405   2.3579 0008336 104.4001 255.8169 15.35475190317689
BGUSAT                  
1 41999U 17008BD  22305.44101322  .00090685  00000+0  14858-2 0  9992
2 41999  97.2647  16.0977 0004530  95.3883 264.7887 15.52148501317798
DIDO-2                  
1 42000U 17008BE  22305.42600502  .00012742  00000+0  43174-3 0  9990
2 42000  97.2403   1.3036 0008531 124.6237 235.5810 15.30659619317008
PEASSS                  
1 42015U 17008BV  22305.14247214  .00019946  00000+0  58715-3 0  9992
2 42015  97.2465   5.6912 0006284 116.7625 243.4263 15.35076956317718
AL-FARABI 1             
1 42016U 17008BW  22305.43780532  .00033978  00000+0  86284-3 0  9993
2 42016  97.2533   9.8204 0005476 113.2008 246.9816 15.39563879318086
NAYIF-1 (EO-88)         
1 42017U 17008BX  22305.76292708  .00029264  00000+0  73803-3 0  9999
2 42017  97.2536  10.1740 0005600 110.5627 249.6220 15.39803995318160
UCLSAT                  
1 42765U 17036A   22305.55656219  .00023981  00000+0  74548-3 0  9995
2 42765  97.1819 344.0918 0008547 181.2424 178.8800 15.33293459298832
LITUANICASAT-2          
1 42768U 17036D   22305.07751437  .00060809  00000+0  13228-2 0  9990
2 42768  97.1882 348.0217 0009422 163.0512 197.1054 15.44061307298269
AALTO-1                 
1 42775U 17036L   22305.04672204  .00011984  00000+0  44557-3 0  9999
2 42775  97.1841 337.7366 0011462 192.9547 167.1400 15.27604587297612
URSA MAIOR              
1 42776U 17036M   22305.36288056  .00012110  00000+0  43980-3 0  9994
2 42776  97.1852 338.9234 0011202 189.3841 170.7192 15.28377661297700
COMPASS 2               
1 42777U 17036N   22305.08201385  .00037833  00000+0  10074-2 0  9990
2 42777  97.1882 346.5417 0009045 168.5747 191.5706 15.38056377298104
DIAMOND RED             
1 42783U 17036U   22305.33988650  .00013683  00000+0  47359-3 0  9996
2 42783  97.1851 341.5125 0009451 191.8784 168.2236 15.29940443297855
PEGASUS                 
1 42784U 17036V   22305.11138238  .00020058  00000+0  64819-3 0  9996
2 42784  97.1846 342.7606 0009120 187.6447 172.4657 15.32083056297912
DIAMOND GREEN           
1 42785U 17036W   22305.34011477  .00014609  00000+0  50468-3 0  9997
2 42785  97.1854 341.5784 0009254 193.2485 166.8515 15.29990325297922
DIAMOND BLUE            
1 42786U 17036X   22305.33935280  .00014017  00000+0  48454-3 0  9999
2 42786  97.1854 341.5694 0009289 193.6452 166.4539 15.29977800297924
NUDTSAT                 
1 42787U 17036Y   22305.87721023  .00040066  00000+0  10097-2 0  9991
2 42787  97.1857 348.8366 0007503 166.0074 194.1388 15.39749309298197
SUCHAI                  
1 42788U 17036Z   22305.37734334  .00022023  00000+0  65505-3 0  9994
2 42788  97.1845 345.0801 0008603 179.5844 180.5408 15.34711216298153
SKCUBE                  
1 42789U 17036AA  22305.39106475  .00019897  00000+0  61487-3 0  9996
2 42789  97.1842 344.3726 0008749 180.9317 179.1911 15.33518218298037
VZLUSAT-1               
1 42790U 17036AB  22305.05779457  .00041720  00000+0  10637-2 0  9997
2 42790  97.1856 347.9599 0007660 170.0342 190.1057 15.39382740298219
ROBUSTA 1B              
1 42792U 17036AD  22305.09420648  .00024888  00000+0  74857-3 0  9999
2 42792  97.1842 344.7714 0008126 180.4256 179.6982 15.34338670298045
CICERO 6                
1 42793U 17036AE  22305.04808734  .00013839  00000+0  48350-3 0  9994
2 42793  97.1829 341.7093 0008093 191.0751 169.0313 15.29643663297932
CORVUS BC2              
1 42846U 17042X   22305.06704513  .00003027  00000+0  29402-3 0  9997
2 42846  97.4045 154.5566 0007685 257.0705 102.9658 14.93278215288662
CORVUS BC1              
1 42847U 17042Y   22305.13864546  .00002331  00000+0  22711-3 0  9992
2 42847  97.4047 154.9518 0007459 256.1860 103.8530 14.93358760288682
MIRATA                  
1 43015U 17073C   22305.22421187  .00009931  00000+0  69456-3 0  9994
2 43015  97.6553 195.4791 0234162  90.7493 272.0558 14.85863681267561
MAKERSAT 0              
1 43016U 17073D   22305.43285008  .00007095  00000+0  51250-3 0  9990
2 43016  97.6565 194.8957 0242877  95.6816 267.2145 14.83595115267499
CORVUS BC3              
1 43118U 18004H   22305.47820232  .00014381  00000+0  50497-3 0  9994
2 43118  97.3495  16.4886 0007658 230.6711 129.3852 15.29481495267143
MICROMAS-2A             
1 43131U 18004W   22305.19125056  .00046826  00000+0  10267-2 0  9999
2 43131  97.3640  25.3201 0005400 212.4186 147.6731 15.43923989267613
SPACEBEE-4              
1 43139U 18004AE  22305.52402648  .00228869  00000+0  21809-2 0  9992
2 43139  97.3712  33.3442 0005408 234.2713 125.8045 15.66059597268104
CICERO 7                
1 43143U 18004AJ  22305.44506976  .00026289  00000+0  70012-3 0  9990
2 43143  97.3632  24.2876 0004737 216.3802 143.7121 15.38158245267599
GOMX-4B                 
1 43196U 18015E   22305.36545210  .00009883  00000+0  35312-3 0  9990
2 43196  97.5521  86.3404 0015540 295.8765  64.0872 15.28931378264068
GOMX-4A                 
1 43197U 18015F   22305.77213882  .00012669  00000+0  42466-3 0  9997
2 43197  97.5515  87.9419 0015325 293.1820 175.0037 15.30944211264215
AEROCUBE 12A            
1 43556U 18046C   22305.39707380  .00042529  00000+0  87521-3 0  9998
2 43556  51.6347 233.7267 0008058 158.4976 201.6351 15.45487883240447
AEROCUBE 12B            
1 43557U 18046D   22305.23427542  .00030772  00000+0  71590-3 0  9997
2 43557  51.6361 241.5489 0007884 155.2791 204.8574 15.42008153240272
SURFSAT                 
1 43614U 18070B   22305.53358334  .00108229  00000+0  91340-3 0  9991
2 43614  93.0075 157.2916 0007280 163.3808 196.7702 15.69429027232443
CP7 (DAVE)              
1 43615U 18070C   22305.32742007  .00076638  00000+0  74091-3 0  9995
2 43615  93.0071 156.8691 0007669 171.8584 188.2811 15.66162459232358
CUBEBEL-1 (BSUSAT-1)    
1 43666U 18083E   22305.85346314  .00015227  00000+0  59622-3 0  9994
2 43666  97.4107 333.1220 0011112 202.8310 245.0855 15.25841117222416
CICERO 10               
1 43690U 18088A   22305.83248895  .00015736  00000+0  58776-3 0  9993
2 43690  85.0384 225.0094 0013557  12.9664 347.1926 15.27164638220686
IRVINE01                
1 43693U 18088D   22305.25014444  .00105874  00000+0  17365-2 0  9994
2 43693  85.0262 217.3532 0005508  10.8500 349.2876 15.52052332221311
PROXIMA I               
1 43694U 18088E   22305.24894556  .00016210  00000+0  57296-3 0  9997
2 43694  85.0314 221.7401 0014698 339.1311  20.9332 15.28961236220854
PROXIMA II              
1 43696U 18088G   22305.77517381  .00015791  00000+0  55856-3 0  9998
2 43696  85.0320 221.4131 0014646 336.9743  23.0845 15.28936540220928
FACSAT-1                
1 43721U 18096C   22305.85960932  .00042105  00000+0  97067-3 0  9998
2 43721  97.3405  25.9586 0010725 274.3033 222.6795 15.42405228219108
CENTAURI-2              
1 43722U 18096D   22305.19778627  .00057615  00000+0  10780-2 0  9992
2 43722  97.3457  28.2412 0010834 271.8145  88.1864 15.48461582219166
INNOSAT-2               
1 43738U 18096V   22305.84495396  .00310041  00000+0  20074-2 0  9992
2 43738  97.3538  39.2066 0011523 253.1243 253.8978 15.75089469219895
SIRION PATHFINDER-2     
1 43759U 18099B   22305.43868094  .00003169  00000+0  28089-3 0  9997
2 43759  97.6048   8.5534 0014302 157.7557 202.4288 14.96849360213536
CORVUS BC4              
1 43767U 18099K   22305.78197379  .00003456  00000+0  31059-3 0  9995
2 43767  97.6003   7.1921 0012038 160.2551 199.9139 14.96263987213505
MOVE-II                 
1 43780U 18099Y   22305.66488932  .00008877  00000+0  73695-3 0  9999
2 43780  97.6103   9.8945 0013600 160.7821 199.3918 14.98928233213601
SPACEBEE-7              
1 43816U 18099BL  22305.13425842  .00006534  00000+0  54846-3 0  9997
2 43816  97.6121  10.0980 0014025 148.1114 212.0960 14.98596305213118
SPACEBEE-5              
1 43817U 18099BM  22305.41403220  .00019790  00000+0  14391-2 0  9993
2 43817  97.6210  14.2684 0005927 147.3774 212.7819 15.03844266213332
SPACEBEE-6              
1 43818U 18099BN  22305.44845070  .00009554  00000+0  76962-3 0  9990
2 43818  97.6134  11.5958 0014311 156.3262 203.8623 15.00058194213362
SHIELDS 1               
1 43850U 18104B   22305.47206703  .00006336  00000+0  25446-3 0  9996
2 43850  85.0259 321.2457 0016066 116.2465 244.0432 15.24619626215378
STF-1                   
1 43852U 18104D   22305.08867649  .00014793  00000+0  51444-3 0  9990
2 43852  85.0282 321.3256 0014377 125.7158 234.5428 15.29492231215400
